[{"OBJECT_NAME":"OBJECT E","OBJECT_ID":"2024-092E","EPOCH":"2026-03-09T21:25:47.709120","MEAN_MOTION":15.32997986,"ECCENTRICITY":0.0008531,"INCLINATION":97.642,"RA_OF_ASC_NODE":198.2099,"ARG_OF_PERICENTER":142.2606,"MEAN_ANOMALY":217.9236,"EPHEMERIS_TYPE":0,"CLASSIFICATION_TYPE":"U","NORAD_CAT_ID":59777,"ELEMENT_SET_NO":999,"REV_AT_EPOCH":10051,"BSTAR":0.00078641119,"MEAN_MOTION_DOT":0.00025066,"MEAN_MOTION_DDOT":0},{"OBJECT_NAME":"STARLINK-35503","OBJECT_ID":"2025-245M","EPOCH":"2026-03-09T19:52:06.749760","MEAN_MOTION":15.30211126,"ECCENTRICITY":0.00011442,"INCLINATION":53.1577,"RA_OF_ASC_NODE":283.5394,"ARG_OF_PERICENTER":108.4847,"MEAN_ANOMALY":251.6278,"EPHEMERIS_TYPE":0,"CLASSIFICATION_TYPE":"U","NORAD_CAT_ID":66245,"ELEMENT_SET_NO":999,"REV_AT_EPOCH":2122,"BSTAR":0.00098557575,"MEAN_MOTION_DOT":0.00028955,"MEAN_MOTION_DDOT":0}]
